{"type": "FeatureCollection", "features": [ {"type": "Feature", "properties": {"norad_id": 66578, "name": "STARLINK-35743", "group": "last-30-days", "lat": 19.977355580595553, "lon": 137.01375909471105, "alt_km": 411.3373384328179, "timestamp": "2025-12-13T22:39:28.444120+00:00", "meta": {"OBJECT_NAME": "STARLINK-35743", "OBJECT_ID": "2025-268X", "EPOCH": "2025-12-13T07:04:15.971520", "MEAN_MOTION": 15.5064567, "ECCENTRICITY": 8.455e-05, "INCLINATION": 42.9995, "RA_OF_ASC_NODE": 117.8528, "ARG_OF_PERICENTER": 255.7967, "MEAN_ANOMALY": 104.2799, "EPHEMERIS_TYPE": 0, "CLASSIFICATION_TYPE": "U", "NORAD_CAT_ID": 66578, "ELEMENT_SET_NO": 999, "REV_AT_EPOCH": 471, "BSTAR": 0.0031012837, "MEAN_MOTION_DOT": 0.00186438, "MEAN_MOTION_DDOT": 0}, "tle": {"line1": "1 66578U 25268X   25347.29462930  .00186438  00000+0  31013-2 0  9990", "line2": "2 66578  42.9995 117.8528 0000845 255.7967 104.2799 15.50645670  4715"}}, "geometry": {"type": "Point", "coordinates": [137.01375909471105, 19.977355580595553]}}, {"type": "Feature", "properties": {"norad_id": 66579, "name": "STARLINK-35868", "group": "last-30-days", "lat": 21.1539785336707, "lon": 138.58333954155708, "alt_km": 411.63780366627725, "timestamp": "2025-12-13T22:39:28.444131+00:00", "meta": {"OBJECT_NAME": "STARLINK-35868", "OBJECT_ID": "2025-268Y", "EPOCH": "2025-12-13T02:25:29.980416", "MEAN_MOTION": 15.5062668, "ECCENTRICITY": 0.00017706, "INCLINATION": 42.9994, "RA_OF_ASC_NODE": 118.981, "ARG_OF_PERICENTER": 267.0088, "MEAN_ANOMALY": 93.0569, "EPHEMERIS_TYPE": 0, "CLASSIFICATION_TYPE": "U", "NORAD_CAT_ID": 66579, "ELEMENT_SET_NO": 999, "REV_AT_EPOCH": 468, "BSTAR": 0.0016908379, "MEAN_MOTION_DOT": 0.00100303, "MEAN_MOTION_DDOT": 0}, "tle": {"line1": "1 66579U 25268Y   25347.10104144  .00100303  00000+0  16908-2 0  9994", "line2": "2 66579  42.9994 118.9810 0001770 267.0088  93.0569 15.50626680  4685"}}, "geometry": {"type": "Point", "coordinates": [138.58333954155708, 21.1539785336707]}}, {"type": "Feature", "properties": {"norad_id": 66580, "name": "STARLINK-35872", "group": "last-30-days", "lat": 22.33623178135452, "lon": 140.2067329425066, "alt_km": 411.3200668253421, "timestamp": "2025-12-13T22:39:28.444143+00:00", "meta": {"OBJECT_NAME": "STARLINK-35872", "OBJECT_ID": "2025-268Z", "EPOCH": "2025-12-13T02:25:00.396192", "MEAN_MOTION": 15.5062559, "ECCENTRICITY": 0.00015242, "INCLINATION": 42.9993, "RA_OF_ASC_NODE": 118.9789, "ARG_OF_PERICENTER": 271.4232, "MEAN_ANOMALY": 88.6454, "EPHEMERIS_TYPE": 0, "CLASSIFICATION_TYPE": "U", "NORAD_CAT_ID": 66580, "ELEMENT_SET_NO": 999, "REV_AT_EPOCH": 468, "BSTAR": 0.0017305178, "MEAN_MOTION_DOT": 0.00102692, "MEAN_MOTION_DDOT": 0}, "tle": {"line1": "1 66580U 25268Z   25347.10069903  .00102692  00000+0  17305-2 0  9994", "line2": "2 66580  42.9993 118.9789 0001524 271.4232  88.6454 15.50625590  4680"}}, "geometry": {"type": "Point", "coordinates": [140.2067329425066, 22.33623178135452]}}, {"type": "Feature", "properties": {"norad_id": 66581, "name": "STARLINK-35744", "group": "last-30-days", "lat": 23.59283835437872, "lon": 141.98612689247977, "alt_km": 410.826178351208, "timestamp": "2025-12-13T22:39:28.444153+00:00", "meta": {"OBJECT_NAME": "STARLINK-35744", "OBJECT_ID": "2025-268AA", "EPOCH": "2025-12-13T02:24:30.678048", "MEAN_MOTION": 15.50635625, "ECCENTRICITY": 0.00019396, "INCLINATION": 42.9998, "RA_OF_ASC_NODE": 118.9748, "ARG_OF_PERICENTER": 281.7444, "MEAN_ANOMALY": 78.3199, "EPHEMERIS_TYPE": 0, "CLASSIFICATION_TYPE": "U", "NORAD_CAT_ID": 66581, "ELEMENT_SET_NO": 999, "REV_AT_EPOCH": 468, "BSTAR": 0.0024783298, "MEAN_MOTION_DOT": 0.00148134, "MEAN_MOTION_DDOT": 0}, "tle": {"line1": "1 66581U 25268AA  25347.10035507  .00148134  00000+0  24783-2 0  9997", "line2": "2 66581  42.9998 118.9748 0001939 281.7444  78.3199 15.50635625  4682"}}, "geometry": {"type": "Point", "coordinates": [141.98612689247977, 23.59283835437872]}}, {"type": "Feature", "properties": {"norad_id": 66582, "name": "STARLINK-35746", "group": "last-30-days", "lat": 24.794704060694066, "lon": 143.75022672885467, "alt_km": 410.4322200258657, "timestamp": "2025-12-13T22:39:28.444163+00:00", "meta": {"OBJECT_NAME": "STARLINK-35746", "OBJECT_ID": "2025-268AB", "EPOCH": "2025-12-13T02:24:01.283904", "MEAN_MOTION": 15.50655473, "ECCENTRICITY": 0.00012802, "INCLINATION": 43.0002, "RA_OF_ASC_NODE": 118.9719, "ARG_OF_PERICENTER": 276.6266, "MEAN_ANOMALY": 83.4449, "EPHEMERIS_TYPE": 0, "CLASSIFICATION_TYPE": "U", "NORAD_CAT_ID": 66582, "ELEMENT_SET_NO": 999, "REV_AT_EPOCH": 468, "BSTAR": 0.0027974602, "MEAN_MOTION_DOT": 0.00167794, "MEAN_MOTION_DDOT": 0}, "tle": {"line1": "1 66582U 25268AB  25347.10001486  .00167794  00000+0  27975-2 0  9996", "line2": "2 66582  43.0002 118.9719 0001280 276.6266  83.4449 15.50655473  4681"}}, "geometry": {"type": "Point", "coordinates": [143.75022672885467, 24.794704060694066]}}, {"type": "Feature", "properties": {"norad_id": 66583, "name": "STARLINK-35941", "group": "last-30-days", "lat": 25.91434745187036, "lon": 145.45533306428, "alt_km": 410.1108902178448, "timestamp": "2025-12-13T22:39:28.444173+00:00", "meta": {"OBJECT_NAME": "STARLINK-35941", "OBJECT_ID": "2025-268AC", "EPOCH": "2025-12-13T02:23:31.434432", "MEAN_MOTION": 15.50656869, "ECCENTRICITY": 0.0001234, "INCLINATION": 43, "RA_OF_ASC_NODE": 118.9697, "ARG_OF_PERICENTER": 292.7477, "MEAN_ANOMALY": 67.3252, "EPHEMERIS_TYPE": 0, "CLASSIFICATION_TYPE": "U", "NORAD_CAT_ID": 66583, "ELEMENT_SET_NO": 999, "REV_AT_EPOCH": 468, "BSTAR": 0.0025889773, "MEAN_MOTION_DOT": 0.00155015, "MEAN_MOTION_DDOT": 0}, "tle": {"line1": "1 66583U 25268AC  25347.09966938  .00155015  00000+0  25890-2 0  9994", "line2": "2 66583  43.0000 118.9697 0001234 292.7477  67.3252 15.50656869  4680"}}, "geometry": {"type": "Point", "coordinates": [145.45533306428, 25.91434745187036]}}, {"type": "Feature", "properties": {"norad_id": 66584, "name": "STARLINK-35939", "group": "last-30-days", "lat": 26.973221207689484, "lon": 147.12649832518017, "alt_km": 410.4016359793186, "timestamp": "2025-12-13T22:39:28.444183+00:00", "meta": {"OBJECT_NAME": "STARLINK-35939", "OBJECT_ID": "2025-268AD", "EPOCH": "2025-12-13T02:23:01.981536", "MEAN_MOTION": 15.50649717, "ECCENTRICITY": 0.0001615, "INCLINATION": 42.9995, "RA_OF_ASC_NODE": 118.9657, "ARG_OF_PERICENTER": 276.9481, "MEAN_ANOMALY": 83.1195, "EPHEMERIS_TYPE": 0, "CLASSIFICATION_TYPE": "U", "NORAD_CAT_ID": 66584, "ELEMENT_SET_NO": 999, "REV_AT_EPOCH": 468, "BSTAR": 0.0022907746, "MEAN_MOTION_DOT": 0.00136765, "MEAN_MOTION_DDOT": 0}, "tle": {"line1": "1 66584U 25268AD  25347.09932849  .00136765  00000+0  22908-2 0  9997", "line2": "2 66584  42.9995 118.9657 0001615 276.9481  83.1195 15.50649717  4686"}}, "geometry": {"type": "Point", "coordinates": [147.12649832518017, 26.973221207689484]}}, {"type": "Feature", "properties": {"norad_id": 66585, "name": "STARLINK-35963", "group": "last-30-days", "lat": 28.116471101349028, "lon": 149.0060709692081, "alt_km": 410.10328406617737, "timestamp": "2025-12-13T22:39:28.444192+00:00", "meta": {"OBJECT_NAME": "STARLINK-35963", "OBJECT_ID": "2025-268AE", "EPOCH": "2025-12-13T02:22:32.295360", "MEAN_MOTION": 15.50651828, "ECCENTRICITY": 0.00015519, "INCLINATION": 43.0003, "RA_OF_ASC_NODE": 118.9649, "ARG_OF_PERICENTER": 272.191, "MEAN_ANOMALY": 87.8772, "EPHEMERIS_TYPE": 0, "CLASSIFICATION_TYPE": "U", "NORAD_CAT_ID": 66585, "ELEMENT_SET_NO": 999, "REV_AT_EPOCH": 468, "BSTAR": 0.002916443, "MEAN_MOTION_DOT": 0.00175087, "MEAN_MOTION_DDOT": 0}, "tle": {"line1": "1 66585U 25268AE  25347.09898490  .00175087  00000+0  29164-2 0  9992", "line2": "2 66585  43.0003 118.9649 0001551 272.1910  87.8772 15.50651828  4682"}}, "geometry": {"type": "Point", "coordinates": [149.0060709692081, 28.116471101349028]}}, {"type": "Feature", "properties": {"norad_id": 66586, "name": "TJS-21", "group": "last-30-days", "lat": 63.2434212071603, "lon": -108.67083720392652, "alt_km": 38248.01470350185, "timestamp": "2025-12-13T22:39:28.444206+00:00", "meta": {"OBJECT_NAME": "TJS-21", "OBJECT_ID": "2025-269A", "EPOCH": "2025-12-10T17:31:22.184832", "MEAN_MOTION": 2.00567425, "ECCENTRICITY": 0.6805766, "INCLINATION": 63.269, "RA_OF_ASC_NODE": 162.5612, "ARG_OF_PERICENTER": 269.7806, "MEAN_ANOMALY": 18.6565, "EPHEMERIS_TYPE": 0, "CLASSIFICATION_TYPE": "U", "NORAD_CAT_ID": 66586, "ELEMENT_SET_NO": 999, "REV_AT_EPOCH": 39, "BSTAR": -0.044965385, "MEAN_MOTION_DOT": 1.083e-05, "MEAN_MOTION_DDOT": 0}, "tle": {"line1": "1 66586U 25269A   25344.73011788  .00001083  00000+0 -44965-1 0  9999", "line2": "2 66586  63.2690 162.5612 6805766 269.7806  18.6565  2.00567425   392"}}, "geometry": {"type": "Point", "coordinates": [-108.67083720392652, 63.2434212071603]}}, {"type": "Feature", "properties": {"norad_id": 66587, "name": "CZ-3B R/B", "group": "last-30-days", "lat": 34.307488390123865, "lon": -157.5342478875926, "alt_km": 39539.53840505088, "timestamp": "2025-12-13T22:39:28.444223+00:00", "meta": {"OBJECT_NAME": "CZ-3B R/B", "OBJECT_ID": "2025-269B", "EPOCH": "2025-12-12T18:47:24.789120", "MEAN_MOTION": 2.03336189, "ECCENTRICITY": 0.7518951, "INCLINATION": 51.347, "RA_OF_ASC_NODE": 169.6347, "ARG_OF_PERICENTER": 228.7177, "MEAN_ANOMALY": 37.1847, "EPHEMERIS_TYPE": 0, "CLASSIFICATION_TYPE": "U", "NORAD_CAT_ID": 66587, "ELEMENT_SET_NO": 999, "REV_AT_EPOCH": 45, "BSTAR": 0.00096662605, "MEAN_MOTION_DOT": 0.00067576, "MEAN_MOTION_DDOT": 1.09445e-06}, "tle": {"line1": "1 66587U 25269B   25346.78292580  .00067576  10944-5  96663-3 0  9994", "line2": "2 66587  51.3470 169.6347 7518951 228.7177  37.1847  2.03336189   454"}}, "geometry": {"type": "Point", "coordinates": [-157.5342478875926, 34.307488390123865]}}]}